{
  "type": "FeatureCollection",
  "features": [
    {
      "type": "Feature",
      "properties": {
        "norad_id": 37867,
        "name": "COSMOS 2476 (744)",
        "group": "glo-ops",
        "lat": -61.705939676510724,
        "lon": 19.779293284141424,
        "alt_km": 19095.81579532043,
        "timestamp": "2025-12-19T14:48:36.508458+00:00",
        "meta_object_name": "COSMOS 2476 (744)",
        "meta_object_id": "2011-064A",
        "meta_epoch": "2025-12-19T06:05:26.552256",
        "meta_mean_motion": 2.13103916,
        "meta_eccentricity": 0.00243207,
        "meta_inclination": 65.1662,
        "meta_ra_of_asc_node": 78.9509,
        "meta_arg_of_pericenter": 234.6548,
        "meta_mean_anomaly": 130.4776,
        "meta_ephemeris_type": 0,
        "meta_classification_type": "U",
        "meta_norad_cat_id": 37867,
        "meta_element_set_no": 999,
        "meta_rev_at_epoch": 10993,
        "meta_bstar": 0,
        "meta_mean_motion_dot": -3e-07,
        "meta_mean_motion_ddot": 0,
        "tle_line1": "1 37867U 11064A   25353.25377954 -.00000030  00000+0  00000+0 0  9995",
        "tle_line2": "2 37867  65.1662  78.9509 0024320 234.6548 130.4776  2.13103916109936"
      },
      "geometry": {
        "type": "Point",
        "coordinates": [
          19.779293284141424,
          -61.705939676510724
        ]
      }
    },
    {
      "type": "Feature",
      "properties": {
        "norad_id": 37868,
        "name": "COSMOS 2477 (745)",
        "group": "glo-ops",
        "lat": 61.46439102115733,
        "lon": -159.1664975299224,
        "alt_km": 19158.045410555627,
        "timestamp": "2025-12-19T14:48:36.508470+00:00",
        "meta_object_name": "COSMOS 2477 (745)",
        "meta_object_id": "2011-064B",
        "meta_epoch": "2025-12-18T12:02:16.818720",
        "meta_mean_motion": 2.13102921,
        "meta_eccentricity": 0.00212144,
        "meta_inclination": 65.1723,
        "meta_ra_of_asc_node": 79.0538,
        "meta_arg_of_pericenter": 234.8854,
        "meta_mean_anomaly": 94.0943,
        "meta_ephemeris_type": 0,
        "meta_classification_type": "U",
        "meta_norad_cat_id": 37868,
        "meta_element_set_no": 999,
        "meta_rev_at_epoch": 10990,
        "meta_bstar": 0,
        "meta_mean_motion_dot": -3.8e-07,
        "meta_mean_motion_ddot": 0,
        "tle_line1": "1 37868U 11064B   25352.50158355 -.00000038  00000+0  00000+0 0  9993",
        "tle_line2": "2 37868  65.1723  79.0538 0021214 234.8854  94.0943  2.13102921109903"
      },
      "geometry": {
        "type": "Point",
        "coordinates": [
          -159.1664975299224,
          61.46439102115733
        ]
      }
    },
    {
      "type": "Feature",
      "properties": {
        "norad_id": 37869,
        "name": "COSMOS 2475 (743)",
        "group": "glo-ops",
        "lat": 52.34361955543178,
        "lon": 115.82120077761898,
        "alt_km": 19190.779821286123,
        "timestamp": "2025-12-19T14:48:36.508482+00:00",
        "meta_object_name": "COSMOS 2475 (743)",
        "meta_object_id": "2011-064C",
        "meta_epoch": "2025-12-18T05:19:14.657088",
        "meta_mean_motion": 2.13101609,
        "meta_eccentricity": 0.0026433,
        "meta_inclination": 65.1789,
        "meta_ra_of_asc_node": 79.0834,
        "meta_arg_of_pericenter": 248.8457,
        "meta_mean_anomaly": 181.3342,
        "meta_ephemeris_type": 0,
        "meta_classification_type": "U",
        "meta_norad_cat_id": 37869,
        "meta_element_set_no": 999,
        "meta_rev_at_epoch": 10991,
        "meta_bstar": 0,
        "meta_mean_motion_dot": -4.1e-07,
        "meta_mean_motion_ddot": 0,
        "tle_line1": "1 37869U 11064C   25352.22169742 -.00000041  00000+0  00000+0 0  9999",
        "tle_line2": "2 37869  65.1789  79.0834 0026433 248.8457 181.3342  2.13101609109913"
      },
      "geometry": {
        "type": "Point",
        "coordinates": [
          115.82120077761898,
          52.34361955543178
        ]
      }
    },
    {
      "type": "Feature",
      "properties": {
        "norad_id": 39155,
        "name": "COSMOS 2485 (747)",
        "group": "glo-ops",
        "lat": -24.89385731818909,
        "lon": 67.34727341421497,
        "alt_km": 19146.815038878052,
        "timestamp": "2025-12-19T14:48:36.508493+00:00",
        "meta_object_name": "COSMOS 2485 (747)",
        "meta_object_id": "2013-019A",
        "meta_epoch": "2025-12-18T17:09:02.655648",
        "meta_mean_motion": 2.13103192,
        "meta_eccentricity": 0.00247782,
        "meta_inclination": 65.3168,
        "meta_ra_of_asc_node": 79.6661,
        "meta_arg_of_pericenter": 230.0863,
        "meta_mean_anomaly": 129.7189,
        "meta_ephemeris_type": 0,
        "meta_classification_type": "U",
        "meta_norad_cat_id": 39155,
        "meta_element_set_no": 999,
        "meta_rev_at_epoch": 9843,
        "meta_bstar": 0,
        "meta_mean_motion_dot": -3.5e-07,
        "meta_mean_motion_ddot": 0,
        "tle_line1": "1 39155U 13019A   25352.71461407 -.00000035  00000+0  00000+0 0  9991",
        "tle_line2": "2 39155  65.3168  79.6661 0024778 230.0863 129.7189  2.13103192 98432"
      },
      "geometry": {
        "type": "Point",
        "coordinates": [
          67.34727341421497,
          -24.89385731818909
        ]
      }
    },
    {
      "type": "Feature",
      "properties": {
        "norad_id": 39620,
        "name": "COSMOS 2492 (754)",
        "group": "glo-ops",
        "lat": 3.740251996554357,
        "lon": -38.264924920577386,
        "alt_km": 19107.329844880795,
        "timestamp": "2025-12-19T14:48:36.508505+00:00",
        "meta_object_name": "COSMOS 2492 (754)",
        "meta_object_id": "2014-012A",
        "meta_epoch": "2025-12-18T04:53:42.056736",
        "meta_mean_motion": 2.13103354,
        "meta_eccentricity": 0.0014217,
        "meta_inclination": 65.4043,
        "meta_ra_of_asc_node": 320.0846,
        "meta_arg_of_pericenter": 312.4931,
        "meta_mean_anomaly": 47.3782,
        "meta_ephemeris_type": 0,
        "meta_classification_type": "U",
        "meta_norad_cat_id": 39620,
        "meta_element_set_no": 999,
        "meta_rev_at_epoch": 9138,
        "meta_bstar": 0,
        "meta_mean_motion_dot": -6.4e-07,
        "meta_mean_motion_ddot": 0,
        "tle_line1": "1 39620U 14012A   25352.20395899 -.00000064  00000+0  00000+0 0  9999",
        "tle_line2": "2 39620  65.4043 320.0846 0014217 312.4931  47.3782  2.13103354 91389"
      },
      "geometry": {
        "type": "Point",
        "coordinates": [
          -38.264924920577386,
          3.740251996554357
        ]
      }
    },
    {
      "type": "Feature",
      "properties": {
        "norad_id": 40001,
        "name": "COSMOS 2500 (755)",
        "group": "glo-ops",
        "lat": -45.79795398056501,
        "lon": 167.9586207979355,
        "alt_km": 19115.049839908144,
        "timestamp": "2025-12-19T14:48:36.508516+00:00",
        "meta_object_name": "COSMOS 2500 (755)",
        "meta_object_id": "2014-032A",
        "meta_epoch": "2025-12-17T21:45:50.523264",
        "meta_mean_motion": 2.13106065,
        "meta_eccentricity": 0.00080575,
        "meta_inclination": 65.3403,
        "meta_ra_of_asc_node": 319.8565,
        "meta_arg_of_pericenter": 219.1485,
        "meta_mean_anomaly": 140.7851,
        "meta_ephemeris_type": 0,
        "meta_classification_type": "U",
        "meta_norad_cat_id": 40001,
        "meta_element_set_no": 999,
        "meta_rev_at_epoch": 8959,
        "meta_bstar": 0,
        "meta_mean_motion_dot": -6.5e-07,
        "meta_mean_motion_ddot": 0,
        "tle_line1": "1 40001U 14032A   25351.90683476 -.00000065  00000+0  00000+0 0  9994",
        "tle_line2": "2 40001  65.3403 319.8565 0008057 219.1485 140.7851  2.13106065 89596"
      },
      "geometry": {
        "type": "Point",
        "coordinates": [
          167.9586207979355,
          -45.79795398056501
        ]
      }
    },
    {
      "type": "Feature",
      "properties": {
        "norad_id": 40315,
        "name": "COSMOS 2501 (702K)",
        "group": "glo-ops",
        "lat": 28.850397570360013,
        "lon": -147.52990205846197,
        "alt_km": 19177.403123825366,
        "timestamp": "2025-12-19T14:48:36.508527+00:00",
        "meta_object_name": "COSMOS 2501 (702K)",
        "meta_object_id": "2014-075A",
        "meta_epoch": "2025-12-19T02:31:27.452640",
        "meta_mean_motion": 2.13101513,
        "meta_eccentricity": 0.00200994,
        "meta_inclination": 63.6146,
        "meta_ra_of_asc_node": 196.6046,
        "meta_arg_of_pericenter": 204.1838,
        "meta_mean_anomaly": 155.7988,
        "meta_ephemeris_type": 0,
        "meta_classification_type": "U",
        "meta_norad_cat_id": 40315,
        "meta_element_set_no": 999,
        "meta_rev_at_epoch": 8601,
        "meta_bstar": 0,
        "meta_mean_motion_dot": 1.06e-06,
        "meta_mean_motion_ddot": 0,
        "tle_line1": "1 40315U 14075A   25353.10517885  .00000106  00000+0  00000+0 0  9998",
        "tle_line2": "2 40315  63.6146 196.6046 0020099 204.1838 155.7988  2.13101513 86014"
      },
      "geometry": {
        "type": "Point",
        "coordinates": [
          -147.52990205846197,
          28.850397570360013
        ]
      }
    }
  ]
}